C/2018 A3 (ATLAS),e,139.5363,194.2925,86.3557,390.9361,0.0001275,0.99161786,0.0000,01/11.5870/2019,2000,g  8.5,4.0
# From MPC114601
C/2018 A4 (PANSTARRS),e,3.1496,97.6000,355.9670,12.18454,0.0231734,0.80359873,34.5303,06/17.0/2022,2000,g 14.0,4.0
# From MPC109147
P/2018 A5 (PANSTARRS),e,23.5980,87.8009,359.4959,5.630167,0.0737772,0.52296027,127.4525,06/17.0/2022,2000,g 15.0,4.0
# From MPEC 2022-C56
C/2018 A6 (Gibbs),e,77.0549,340.3805,264.3826,15.09007,0.0168138,0.80003528,18.0036,06/17.0/2022,2000,g  9.0,4.0
# From MPC118841
C/2018 B1 (Lemmon),e,162.4196,133.1910,68.3681,7082,0.0000017,0.99927623,0.0000,03/28.1558/2018,2000,g  9.0,4.0
# From MPC114601
P/2018 C1 (Lemmon-Read),e,5.1137,270.3496,235.7036,5.653334,0.0733242,0.53208712,115.4213,06/17.0/2022,2000,g 13.5,4.0
# From MPC114601
C/2018 C2 (Lemmon),h,05/31.7443/2018,34.4628,91.2090,134.0644,1.000215,1.960742,2000,13.0,4.0
# From MPEC 2021-U31
C/2018 DO4 (Lemmon),e,160.4471,251.4130,176.2757,25.39719,0.0077006,0.90503406,7.9679,06/17.0/2022,2000,g 11.0,4.0
# From MPC114602
C/2018 E1 (ATLAS),e,72.5125,146.8588,299.3096,53.85515,0.0024938,0.94995654,3.7935,06/17.0/2022,2000,g 10.5,4.0
# From MPC114602
C/2018 E2 (Barros),e,97.6445,67.1657,277.4443,3406,0.0000050,0.99884953,0.0000,12/23.8720/2017,2000,g 10.5,4.0
# From MPC114602
C/2018 EN4 (NEOWISE),e,81.9231,136.1280,35.0502,17.96998,0.0129385,0.91868923,19.0850,06/17.0/2022,2000,g 15.0,4.0
# From MPC114602
C/2018 EF9 (Lemmon),e,84.6143,172.5520,72.6262,476.2738,0.0000948,0.99672413,0.0000,05/21.7907/2018,2000,g 18.0,2.0
# From MPEC 2021-R75
C/2018 F1 (Grauer),e,46.0765,177.2754,71.6050,251.5948,0.0002470,0.98809083,0.0000,12/12.6520/2018,2000,g 11.5,4.0
# From MPC110084
C/2018 F3 (Johnson),p,08/15.2314/2017,105.5348,293.0113,2.483172,173.0311,2000,13.0,4.0
# From MPEC 2021-W31
C/2018 F4 (PANSTARRS),h,12/03.7011/2019,78.0849,26.5157,263.2289,1.000361,3.442299,2000,11.0,6.0
# From MPEC 2021-Y10
C/2018 F4-A,h,12/03.6894/2019,78.0850,26.5158,263.2257,1.000309,3.442167,2000,11.0,6.0
# From MPEC 2021-W31
C/2018 F4-B,h,12/03.6256/2019,78.0858,26.5154,263.2107,1.000405,3.441949,2000,11.0,6.0
# From MPC114602
P/2018 H2 (PANSTARRS),e,7.4008,68.1371,119.9821,4.385102,0.1073333,0.54153306,172.6153,06/17.0/2022,2000,g 16.6,2.0
# From MPC114602
C/2018 K1 (Weiland),e,164.1913,260.1337,325.2102,30.16660,0.0059486,0.93758848,9.1109,06/17.0/2022,2000,g 14.9,4.0
# From MPEC 2021-R75
C/2018 KJ3 (Lemmon),e,136.6897,91.6341,217.6790,961.8596,0.0000330,0.99622707,0.0000,09/09.9483/2019,2000,g 12.2,2.0
# From MPC114602
P/2018 L1 (PANSTARRS),e,10.5837,268.6252,18.0336,3.652854,0.1411743,0.48218806,185.3340,06/17.0/2022,2000,g 15.0,4.0
# From MPEC 2021-P47
C/2018 L2 (ATLAS),e,67.3008,243.0115,56.3111,260.9042,0.0002339,0.99342748,0.0000,12/02.5129/2018,2000,g 10.0,4.0
# From MPC114603
P/2018 L4 (PANSTARRS),e,26.6236,145.1585,140.6211,4.944191,0.0896522,0.65947491,127.0060,06/17.0/2022,2000,g 17.5,4.0
# From MPC119996
P/2018 L5 (Leonard),e,2.2084,219.0618,93.9318,3.628627,0.1425905,0.36448119,214.3731,06/17.0/2022,2000,g 14.5,4.0
# From MPC117070
C/2018 M1 (Catalina),e,37.3000,339.4097,14.2148,21.45967,0.0099145,0.93924883,14.2494,06/17.0/2022,2000,g 15.5,4.0
# From MPC112393
C/2018 N1 (NEOWISE),e,159.4261,292.4972,354.7107,383.6288,0.0001312,0.99658383,0.0000,08/02.4332/2018,2000,g 15.5,4.0
# From MPEC 2022-L66
C/2018 N2 (ASASSN),h,11/11.1553/2019,77.5461,25.2126,24.4473,1.000569,3.126201,2000,6.0,4.0
# From MPC114603
C/2018 O1 (ATLAS),e,154.0165,87.7324,162.6818,28.06171,0.0066303,0.94440457,9.1822,06/17.0/2022,2000,g 17.0,4.0
# From MPC114603
P/2018 P3 (PANSTARRS),e,8.9129,59.1614,305.9431,3.004774,0.1892284,0.41700969,254.5169,06/17.0/2022,2000,g 14.5,4.0
# From MPC114603
P/2018 P4 (PANSTARRS),e,23.1102,353.0604,8.3618,6.680615,0.0570794,0.45068265,75.1250,06/17.0/2022,2000,g 12.0,4.0
# From MPEC 2021-P47
C/2018 P5 (PANSTARRS),e,7.2483,216.2124,131.8855,12.83361,0.0214378,0.64290904,25.8344,06/17.0/2022,2000,g 11.0,4.0
# From MPC118841
C/2018 R3 (Lemmon),e,69.7247,324.6271,112.7604,1554,0.0000161,0.99917308,0.0000,06/07.5475/2019,2000,g  9.5,4.0
# From MPC112393
C/2018 R4 (Fuls),e,11.6764,298.4953,345.3219,336.9946,0.0001593,0.99489443,0.0000,03/03.0571/2018,2000,g 14.0,4.0
# From MPC114603
C/2018 R5 (Lemmon),e,103.7503,171.1120,178.1452,22.84918,0.0090240,0.84118295,11.3147,06/17.0/2022,2000,g 11.5,4.0
# From MPEC 2022-L66
C/2018 U1 (Lemmon),h,11/03.1715/2021,108.3065,75.4826,180.4760,1.001500,4.993055,2000,5.0,4.0
# From MPC114604
C/2018 V1 (Machholz-Fujikawa-Iwamoto),h,12/02.8821/2018,144.0731,128.9594,88.9829,1.000335,0.388948,2000,12.0,4.0
# From MPC115884
C/2018 V2 (ATLAS),e,159.1675,357.0757,318.9682,25.03826,0.0078668,0.90089762,10.2219,06/17.0/2022,2000,g 15.0,4.0
# From MPC114604
P/2018 VN2 (Leonard),e,18.2592,226.4665,138.8137,4.064074,0.1202989,0.47889852,176.9865,06/17.0/2022,2000,g 15.0,4.0
# From MPEC 2021-P47
A/2018 V3,e,164.9727,308.6748,3.5863,125.9648,0.0006972,0.98934999,0.0000,09/08.9043/2019,2000,g 15.7,2.0
# From MPC114604
C/2018 V4 (Africano),e,69.0170,78.3123,359.9264,203.7860,0.0003388,0.98432142,0.0000,03/01.4048/2019,2000,g 12.5,4.0
# From MPEC 2021-P47
P/2018 V5 (Trujillo-Sheppard),e,10.5892,171.2868,260.6509,8.956811,0.0367683,0.47521222,49.7425,06/17.0/2022,2000,g 12.5,4.0
# From MPEC 2021-P47
C/2018 W1 (Catalina),e,83.3382,233.6338,251.2273,21.67575,0.0097666,0.93725658,11.0587,06/17.0/2022,2000,g 15.5,2.0
# From MPEC 2021-P47
C/2018 W2 (Africano),h,09/05.4163/2019,116.6262,181.8166,158.0232,1.000463,1.458405,2000,9.5,4.0
# From MPC119996
C/2018 X2 (Fitzsimmons),e,23.0695,340.8289,161.9824,141.2816,0.0005869,0.98496753,0.0000,07/08.1829/2019,2000,g 12.0,4.0
# From MPC114604
C/2018 X3 (PANSTARRS),e,43.3917,78.8570,359.7310,12.36940,0.0226559,0.78232451,28.6416,06/17.0/2022,2000,g 14.5,4.0
# From MPC118842
C/2018 Y1 (Iwamoto),e,160.4013,147.5076,357.9539,133.7287,0.0006373,0.99040175,0.0000,02/06.4777/2019,2000,g 11.5,4.0
# From MPC114605
P/2018 Y2 (Africano),e,11.6827,297.2363,162.2534,7.454793,0.0484229,0.47888193,61.1354,06/17.0/2022,2000,g 11.5,4.0
# From MPC114605
P/2019 A1 (PANSTARRS),e,13.7466,312.2865,150.7168,5.118275,0.0851175,0.56869298,114.5134,06/17.0/2022,2000,g 16.0,4.0
# From MPEC 2021-P47
P/2019 A2 (ATLAS),e,14.8600,139.4644,323.8938,5.716420,0.0721137,0.38169992,94.0989,06/17.0/2022,2000,g 10.5,4.0
# From MPEC 2022-L66
P/2019 A3 (PANSTARRS),e,15.3740,31.2921,325.5870,3.145378,0.1766830,0.26603155,249.6923,06/17.0/2022,2000,g 16.0,4.0
# From MPEC 2022-L66
P/2019 A4 (PANSTARRS),e,13.3059,119.2493,342.8104,2.614044,0.2332033,0.08716816,299.6957,06/17.0/2022,2000,g 15.0,4.0
# From MPEC 2021-P47
C/2019 A5 (PANSTARRS),e,67.5574,146.6236,355.8582,21.51554,0.0098759,0.70634883,10.9203,06/17.0/2022,2000,g  9.5,4.0
# From MPC114605
P/2019 A6 (Lemmon-PANSTARRS),e,33.2477,280.2279,156.1765,5.358832,0.0794509,0.63952350,110.2358,06/17.0/2022,2000,g 16.0,4.0
# From MPC115884
P/2019 A8 (PANSTARRS),e,2.2154,115.4772,65.3413,4.227881,0.1133757,0.25688286,157.9503,06/17.0/2022,2000,g 16.0,4.0
# From MPC118842
C/2019 A9 (PANSTARRS),e,84.1978,278.3902,237.9314,39.21301,0.0040138,0.96350661,4.2424,06/17.0/2022,2000,g 15.0,4.0
# From MPEC 2022-L66
C/2019 B1 (Africano),e,123.3793,290.4112,174.7904,140.1169,0.0005942,0.98860466,0.0000,03/19.1279/2019,2000,g 16.0,4.0
# From MPC115885
P/2019 B2 (Groeller),e,17.0230,175.7461,1.0110,3.901950,0.1278738,0.36498071,141.6767,06/17.0/2022,2000,g 14.5,4.0
# From MPEC 2022-C56
C/2019 B3 (PANSTARRS),h,01/20.4328/2021,66.5349,358.4375,263.9498,1.001030,6.824021,2000,5.5,4.0
# From MPEC 2021-P47
C/2019 C1 (ATLAS),e,36.0438,212.3875,319.1294,664.7815,0.0000575,0.99010323,0.0000,05/04.7999/2020,2000,g 10.0,4.0
# From MPC118842
C/2019 D1 (Flewelling),e,34.0353,231.6857,70.6212,143.2644,0.0005748,0.98895338,0.0000,05/11.6574/2019,2000,g 13.0,4.0
# From MPEC 2022-L66
C/2019 E3 (ATLAS),h,11/14.2015/2023,84.2978,347.2548,280.6593,1.001364,10.313544,2000,2.5,4.0
# From MPEC 2022-F14
C/2019 F1 (ATLAS-Africano),h,06/23.0440/2021,54.1817,38.7049,251.1857,1.003747,3.596634,2000,5.5,4.0
# From MPEC 2021-P47
C/2019 F2 (ATLAS),e,19.2347,175.5456,11.5465,16.65937,0.0144949,0.86523858,14.6775,06/17.0/2022,2000,g 12.0,4.0
# From MPEC 2021-P47
A/2019 G2,e,159.2097,208.1548,82.6164,513.7984,0.0000846,0.99553882,0.0000,12/09.3882/2019,2000,g 16.5,2.0
# From MPEC 2021-N06
A/2019 G4,h,09/16.0920/2018,138.3743,130.4617,287.8325,1.002064,5.853542,2000,13.0,2.0
# From MPC114607
P/2019 GG21 (PANSTARRS),e,6.0846,340.5670,208.6155,7.472274,0.0482531,0.47213876,54.6899,06/17.0/2022,2000,g 12.0,4.0
# From MPC115885
C/2019 H1 (NEOWISE),e,104.5137,269.2365,19.3493,242.0275,0.0002618,0.99237221,0.0000,04/27.9613/2019,2000,g 15.5,4.0
# From MPC118842
C/2019 J1 (Lemmon),e,24.5472,98.1222,167.7877,68.79196,0.0017274,0.96390393,2.0132,06/17.0/2022,2000,g 12.0,4.0
# From MPEC 2021-R75
C/2019 J2 (Palomar),e,105.2207,25.5440,98.7273,161.0758,0.0004821,0.98929143,0.0000,07/19.9528/2019,2000,g 13.0,4.0
# From MPC117071
C/2019 J3 (ATLAS),h,08/02.2339/2019,131.3851,270.5676,16.6231,1.000677,2.373818,2000,13.5,4.0
# From MPC117071
C/2019 JU6 (ATLAS),e,148.3301,21.7785,94.9659,367.1210,0.0001401,0.99442627,0.0000,06/01.2451/2019,2000,g 14.5,4.0
# From MPEC 2021-P47
C/2019 K1 (ATLAS),h,02/12.9616/2020,87.0938,73.3618,265.7148,1.000000,2.012738,2000,10.0,4.0
# From MPC119997
C/2019 K4 (Ye),e,105.2965,180.1403,139.8149,1314,0.0000207,0.99827685,0.0000,06/15.9219/2019,2000,g 12.5,4.0
# From MPEC 2021-P47
C/2019 K5 (Young),e,15.3192,177.1270,175.0758,164.8667,0.0004656,0.98763701,0.0000,06/23.0737/2019,2000,g 13.0,4.0
# From MPEC 2021-P47
C/2019 K6 (PANSTARRS),e,132.3836,42.9758,187.6310,1887,0.0000120,0.99791894,0.0000,05/20.2336/2020,2000,g 11.5,4.0
# From MPEC 2022-L66
C/2019 K7,h,06/17.3964/2020,103.5413,307.9403,27.3731,1.000538,4.477349,2000,6.0,4.0
# From MPEC 2021-R75
C/2019 K8 (ATLAS),e,93.1860,291.0434,85.3904,2693,0.0000071,0.99881406,0.0000,07/21.7382/2019,2000,g 11.5,4.0
# From MPC118095
